satname,norad_id,inclination_deg,eccentricity,mean_motion_rev_per_day,perigee_km,apogee_km,l1,l2
STARLINK-1402,45685,53.0536,0.0001408,15.06394325,546.2538595246233,548.2040425764399,1 45685U 20035AE  25274.64044525 -.00000511  00000+0 -15420-4 0  9992,2 45685  53.0536  45.0386 0001408  88.9053 271.2097 15.06394325294982
STARLINK-1404,45686,53.0555,0.0001362,15.06410674,546.235615840852,548.122071876719,1 45686U 20035AF  25274.70181642 -.00001343  00000+0 -71235-4 0  9992,2 45686  53.0555  50.3447 0001362  87.3051 272.8094 15.06410674294914
STARLINK-1413,45689,53.0549,0.0001464,15.06430403,546.1045213018324,548.1322360767126,1 45689U 20035AJ  25274.78657654  .00012049  00000+0  82575-3 0  9995,2 45689  53.0549  49.9576 0001464  81.1763 278.9392 15.06430403294833
STARLINK-1417,45693,53.0567,0.0001206,15.06392852,546.3982659372523,548.0686652935583,1 45693U 20035AN  25274.65022584  .00005331  00000+0  37655-3 0  9999,2 45693  53.0567  50.5758 0001206  91.4733 268.6394 15.06392852294892
STARLINK-1420,45695,53.0557,0.0001211,15.064009,546.3701401929466,548.0474589456035,1 45695U 20035AQ  25274.51841927  .00002022  00000+0  15458-3 0  9997,2 45695  53.0557  31.1548 0001211  87.8294 272.2834 15.06400900295167
STARLINK-1422,45696,53.0534,0.0001266,15.06400585,546.3330160976648,548.0865138985619,1 45696U 20035AR  25274.66129244  .00000919  00000+0  80608-4 0  9998,2 45696  53.0534  50.5252 0001266  90.0844 270.0290 15.06400585294897
STARLINK-1351,45697,53.0558,0.0001404,15.06395516,546.2529799195208,548.1976216535832,1 45697U 20035AS  25274.70366154  .00002627  00000+0  19519-3 0  9997,2 45697  53.0558  30.3329 0001404  92.9650 267.1499 15.06395516295194
STARLINK-1398,45699,53.0533,0.000218,15.4452834,431.27952788295624,434.24908085166135,1 45699U 20035AU  25274.47887301  .00047748  00000+0  10156-2 0  9995,2 45699  53.0533 359.7010 0002180 204.3985 155.6918 15.44528340295604
STARLINK-1400,45700,53.0554,0.0001441,15.06399045,546.2165417283077,548.2124280262497,1 45700U 20035AV  25274.61151022  .00007521  00000+0  52328-3 0  9991,2 45700  53.0554  30.7505 0001441  94.4791 265.6362 15.06399045295170
STARLINK-1403,45701,53.0562,0.0001173,15.06402748,546.3907933289447,548.0154781247866,1 45701U 20035AW  25274.64099698  .00001131  00000+0  94795-4 0  9991,2 45701  53.0562  30.6157 0001173  84.3006 275.8117 15.06402748295177
STARLINK-1407,45703,53.0435,0.0008833,15.36059882,451.736003976971,463.81232463983724,1 45703U 20035AY  25274.40711328  .00038305  00000+0  10792-2 0  9994,2 45703  53.0435 357.0893 0008833 290.6640  69.3414 15.36059882295634
STARLINK-1411,45706,53.0563,0.0001358,15.31754925,469.64621628887653,471.50632681343086,1 45706U 20035BB  25274.83335647  .00156593  00000+0  49441-2 0  9993,2 45706  53.0563  21.7612 0001358  27.4185 334.6372 15.31754925  5880
STARLINK-1423,45710,53.0564,0.0001628,15.06374698,546.1616466395008,548.4165653796172,1 45710U 20035BF  25274.53411865  .00003198  00000+0  23367-3 0  9994,2 45710  53.0564  31.0971 0001628  99.1747 260.9426 15.06374698295168
STARLINK-1433,45711,53.0533,0.0001455,15.06398572,546.2082957040875,548.2235734080432,1 45711U 20035BG  25274.64837779  .00023786  00000+0  16104-2 0  9998,2 45711  53.0533  30.5822 0001455 101.7662 258.3491 15.06398572295179
STARLINK-1434,45712,53.0515,1.82e-05,15.12813759,527.4981076908734,527.7494773837207,1 45712U 20035BH  25274.69681595  .00076510  00000+0  42773-2 0  9991,2 45712  53.0515  28.1255 0000182 145.1056 214.9947 15.12813759295224
STARLINK-1465,45731,53.0538,0.00014,15.06388509,546.2772226934467,548.2163301508444,1 45731U 20038B   25274.61520995  .00012718  00000+0  87140-3 0  9991,2 45731  53.0538 230.7316 0001400  71.7950 288.3192 15.06388509292216
STARLINK-1471,45735,53.051,0.0004113,15.39305169,445.35511605338525,450.97043024677805,1 45735U 20038F   25274.11851699  .00034213  00000+0  87018-3 0  9996,2 45735  53.0510 180.4749 0004113  92.0757 268.0718 15.39305169292885
STARLINK-1474,45738,53.0387,0.0005856,15.6205184,377.77237870456065,385.6895360562439,1 45738U 20038J   25274.81917844  .00094758  00000+0  10564-2 0  9992,2 45738  53.0387 139.7393 0005856 155.6798 204.4493 15.62051840293513
STARLINK-1475,45739,53.0533,0.0006179,15.63233891,374.14802809302,382.49766116901355,1 45739U 20038K   25274.83335647  .00248657  00000+0  25887-2 0  9993,2 45739  53.0533 107.3732 0006179 129.3104  61.3602 15.63233891  5975
STARLINK-1480,45741,53.0518,0.0001459,15.06391291,546.2278376485865,548.2486621465059,1 45741U 20038M   25274.86216506  .00018752  00000+0  12747-2 0  9993,2 45741  53.0518 229.6247 0001459  78.0764 282.0389 15.06391291292268
STARLINK-1500,45744,53.0385,0.0005427,15.25919121,484.3006085246561,491.7531427952981,1 45744U 20038Q   25274.12431661  .00044562  00000+0  17169-2 0  9997,2 45744  53.0385 216.1105 0005427 101.4281 258.7326 15.25919121292384
STARLINK-1504,45746,53.0289,0.0006606,15.35947305,453.5921613002165,462.62420843846576,1 45746U 20038S   25273.96571184  .00040590  00000+0  11473-2 0  9994,2 45746  53.0289 183.9421 0006606  76.1129 284.0608 15.35947305292819
STARLINK-1506,45747,53.0516,0.000501,15.19960112,502.5121166296094,509.40998287546245,1 45747U 20038T   25274.09279000  .00015400  00000+0  72010-3 0  9999,2 45747  53.0516 217.4394 0005010 118.7243 241.4255 15.19960112292361
STARLINK-1464,45751,53.0531,0.0001347,15.06388755,546.313173364968,548.1788715512193,1 45751U 20038X   25274.53227758 -.00000409  00000+0 -85922-5 0  9999,2 45751  53.0531 211.1001 0001347  80.7266 279.3875 15.06388755292496
STARLINK-1477,45754,53.0524,0.0001216,15.06387354,546.4081892803906,548.0924434757344,1 45754U 20038AA  25274.54701604  .00022278  00000+0  15103-2 0  9997,2 45754  53.0524 211.0363 0001216  72.4480 287.6642 15.06387354292490
STARLINK-1478,45755,53.0518,0.0001248,15.0639537,546.361462986798,548.0900335287633,1 45755U 20038AB  25274.56543632 -.00001521  00000+0 -83282-4 0  9990,2 45755  53.0518 210.9578 0001248  78.2886 281.8243 15.06395370292488
STARLINK-1484,45756,53.0173,0.0005211,15.55097953,398.3348464771352,405.40096759124754,1 45756U 20038AC  25274.81300963  .00095333  00000+0  13815-2 0  9992,2 45756  53.0173 126.4391 0005211 129.8438 230.3030 15.55097953293697
STARLINK-1493,45759,53.0527,0.0001364,15.06397692,546.274013126741,548.1632501430504,1 45759U 20038AF  25274.55439554  .00025804  00000+0  17450-2 0  9990,2 45759  53.0527 211.0062 0001364 106.4628 253.6511 15.06397692292483
